{
  "type": "FeatureCollection",
  "features": [
    {
      "type": "Feature",
      "properties": {
        "norad_id": 38479,
        "name": "COSMOS 2251 DEB",
        "group": "cosmos-2251-debris",
        "lat": -58.074804609079784,
        "lon": 159.54506620248864,
        "alt_km": 710.8402182736563,
        "timestamp": "2025-12-11T07:02:24.129091+00:00",
        "meta_object_name": "COSMOS 2251 DEB",
        "meta_object_id": "1993-036BTP",
        "meta_epoch": "2025-12-10T06:49:46.172352",
        "meta_mean_motion": 14.38253174,
        "meta_eccentricity": 0.0084224,
        "meta_inclination": 74.007,
        "meta_ra_of_asc_node": 188.8137,
        "meta_arg_of_pericenter": 298.3144,
        "meta_mean_anomaly": 178.6489,
        "meta_ephemeris_type": 0,
        "meta_classification_type": "U",
        "meta_norad_cat_id": 38479,
        "meta_element_set_no": 999,
        "meta_rev_at_epoch": 64652,
        "meta_bstar": 0.0026738,
        "meta_mean_motion_dot": 8.453e-05,
        "meta_mean_motion_ddot": 0,
        "tle_line1": "1 38479U 93036BTP 25344.28456218  .00008453  00000+0  26738-2 0  9993",
        "tle_line2": "2 38479  74.0070 188.8137 0084224 298.3144 178.6489 14.38253174646522"
      },
      "geometry": {
        "type": "Point",
        "coordinates": [
          159.54506620248864,
          -58.074804609079784
        ]
      }
    },
    {
      "type": "Feature",
      "properties": {
        "norad_id": 38481,
        "name": "COSMOS 2251 DEB",
        "group": "cosmos-2251-debris",
        "lat": 64.89974600489718,
        "lon": 48.02338093574346,
        "alt_km": 987.2961561616303,
        "timestamp": "2025-12-11T07:02:24.129101+00:00",
        "meta_object_name": "COSMOS 2251 DEB",
        "meta_object_id": "1993-036BTR",
        "meta_epoch": "2025-12-10T18:39:21.413952",
        "meta_mean_motion": 13.94808879,
        "meta_eccentricity": 0.02344105,
        "meta_inclination": 73.9331,
        "meta_ra_of_asc_node": 10.9475,
        "meta_arg_of_pericenter": 311.5807,
        "meta_mean_anomaly": 46.5435,
        "meta_ephemeris_type": 0,
        "meta_classification_type": "U",
        "meta_norad_cat_id": 38481,
        "meta_element_set_no": 999,
        "meta_rev_at_epoch": 59033,
        "meta_bstar": 0.0023887459,
        "meta_mean_motion_dot": 4.004e-05,
        "meta_mean_motion_ddot": 0,
        "tle_line1": "1 38481U 93036BTR 25344.77733118  .00004004  00000+0  23887-2 0  9997",
        "tle_line2": "2 38481  73.9331  10.9475 0234410 311.5807  46.5435 13.94808879590331"
      },
      "geometry": {
        "type": "Point",
        "coordinates": [
          48.02338093574346,
          64.89974600489718
        ]
      }
    },
    {
      "type": "Feature",
      "properties": {
        "norad_id": 38483,
        "name": "COSMOS 2251 DEB",
        "group": "cosmos-2251-debris",
        "lat": -6.802053541638108,
        "lon": 12.409204648266847,
        "alt_km": 846.8167122005152,
        "timestamp": "2025-12-11T07:02:24.129111+00:00",
        "meta_object_name": "COSMOS 2251 DEB",
        "meta_object_id": "1993-036BTT",
        "meta_epoch": "2025-12-09T19:47:02.543136",
        "meta_mean_motion": 14.28773008,
        "meta_eccentricity": 0.01104951,
        "meta_inclination": 74.2621,
        "meta_ra_of_asc_node": 16.9647,
        "meta_arg_of_pericenter": 123.4818,
        "meta_mean_anomaly": 237.6953,
        "meta_ephemeris_type": 0,
        "meta_classification_type": "U",
        "meta_norad_cat_id": 38483,
        "meta_element_set_no": 999,
        "meta_rev_at_epoch": 63436,
        "meta_bstar": 0.0013200119,
        "meta_mean_motion_dot": 3.528e-05,
        "meta_mean_motion_ddot": 0,
        "tle_line1": "1 38483U 93036BTT 25343.82433499  .00003528  00000+0  13200-2 0  9991",
        "tle_line2": "2 38483  74.2621  16.9647 0110495 123.4818 237.6953 14.28773008634367"
      },
      "geometry": {
        "type": "Point",
        "coordinates": [
          12.409204648266847,
          -6.802053541638108
        ]
      }
    },
    {
      "type": "Feature",
      "properties": {
        "norad_id": 38486,
        "name": "COSMOS 2251 DEB",
        "group": "cosmos-2251-debris",
        "lat": 68.83190128996748,
        "lon": -20.371097323473542,
        "alt_km": 651.7573282888934,
        "timestamp": "2025-12-11T07:02:24.129121+00:00",
        "meta_object_name": "COSMOS 2251 DEB",
        "meta_object_id": "1993-036BTW",
        "meta_epoch": "2025-12-09T09:44:58.569216",
        "meta_mean_motion": 14.73093158,
        "meta_eccentricity": 0.0030131,
        "meta_inclination": 73.9406,
        "meta_ra_of_asc_node": 211.3897,
        "meta_arg_of_pericenter": 356.1257,
        "meta_mean_anomaly": 183.7867,
        "meta_ephemeris_type": 0,
        "meta_classification_type": "U",
        "meta_norad_cat_id": 38486,
        "meta_element_set_no": 999,
        "meta_rev_at_epoch": 75385,
        "meta_bstar": 0.0034479645,
        "meta_mean_motion_dot": 0.00022398,
        "meta_mean_motion_ddot": 0,
        "tle_line1": "1 38486U 93036BTW 25343.40623344  .00022398  00000+0  34480-2 0  9997",
        "tle_line2": "2 38486  73.9406 211.3897 0030131 356.1257 183.7867 14.73093158753857"
      },
      "geometry": {
        "type": "Point",
        "coordinates": [
          -20.371097323473542,
          68.83190128996748
        ]
      }
    },
    {
      "type": "Feature",
      "properties": {
        "norad_id": 38487,
        "name": "COSMOS 2251 DEB",
        "group": "cosmos-2251-debris",
        "lat": 11.26734127120953,
        "lon": 40.13569535998724,
        "alt_km": 529.9236757699791,
        "timestamp": "2025-12-11T07:02:24.129132+00:00",
        "meta_object_name": "COSMOS 2251 DEB",
        "meta_object_id": "1993-036BTX",
        "meta_epoch": "2025-12-10T10:24:49.677120",
        "meta_mean_motion": 15.17046489,
        "meta_eccentricity": 0.00217125,
        "meta_inclination": 73.9735,
        "meta_ra_of_asc_node": 38.6522,
        "meta_arg_of_pericenter": 210.3514,
        "meta_mean_anomaly": 149.6426,
        "meta_ephemeris_type": 0,
        "meta_classification_type": "U",
        "meta_norad_cat_id": 38487,
        "meta_element_set_no": 999,
        "meta_rev_at_epoch": 66765,
        "meta_bstar": 0.0029648595,
        "meta_mean_motion_dot": 0.00059478,
        "meta_mean_motion_ddot": 0,
        "tle_line1": "1 38487U 93036BTX 25344.43390830  .00059478  00000+0  29649-2 0  9993",
        "tle_line2": "2 38487  73.9735  38.6522 0021712 210.3514 149.6426 15.17046489667658"
      },
      "geometry": {
        "type": "Point",
        "coordinates": [
          40.13569535998724,
          11.26734127120953
        ]
      }
    },
    {
      "type": "Feature",
      "properties": {
        "norad_id": 39109,
        "name": "COSMOS 2251 DEB",
        "group": "cosmos-2251-debris",
        "lat": 4.751604273080276,
        "lon": 46.522431659969556,
        "alt_km": 699.0732232817954,
        "timestamp": "2025-12-11T07:02:24.129141+00:00",
        "meta_object_name": "COSMOS 2251 DEB",
        "meta_object_id": "1993-036BTY",
        "meta_epoch": "2025-12-09T10:58:18.988608",
        "meta_mean_motion": 14.70683686,
        "meta_eccentricity": 0.00592583,
        "meta_inclination": 74.0426,
        "meta_ra_of_asc_node": 231.4464,
        "meta_arg_of_pericenter": 335.6145,
        "meta_mean_anomaly": 202.0339,
        "meta_ephemeris_type": 0,
        "meta_classification_type": "U",
        "meta_norad_cat_id": 39109,
        "meta_element_set_no": 999,
        "meta_rev_at_epoch": 65125,
        "meta_bstar": 0.00089315049,
        "meta_mean_motion_dot": 5.561e-05,
        "meta_mean_motion_ddot": 0,
        "tle_line1": "1 39109U 93036BTY 25343.45716422  .00005561  00000+0  89315-3 0  9996",
        "tle_line2": "2 39109  74.0426 231.4464 0059258 335.6145 202.0339 14.70683686651254"
      },
      "geometry": {
        "type": "Point",
        "coordinates": [
          46.522431659969556,
          4.751604273080276
        ]
      }
    },
    {
      "type": "Feature",
      "properties": {
        "norad_id": 39110,
        "name": "COSMOS 2251 DEB",
        "group": "cosmos-2251-debris",
        "lat": -10.176795121529379,
        "lon": 61.376834628227904,
        "alt_km": 616.2434010951893,
        "timestamp": "2025-12-11T07:02:24.129152+00:00",
        "meta_object_name": "COSMOS 2251 DEB",
        "meta_object_id": "1993-036BTZ",
        "meta_epoch": "2025-12-03T13:14:13.055136",
        "meta_mean_motion": 14.72215365,
        "meta_eccentricity": 0.00964609,
        "meta_inclination": 73.9598,
        "meta_ra_of_asc_node": 79.4668,
        "meta_arg_of_pericenter": 313.6965,
        "meta_mean_anomaly": 59.6182,
        "meta_ephemeris_type": 0,
        "meta_classification_type": "U",
        "meta_norad_cat_id": 39110,
        "meta_element_set_no": 999,
        "meta_rev_at_epoch": 62349,
        "meta_bstar": 0.00066560445,
        "meta_mean_motion_dot": 4.484e-05,
        "meta_mean_motion_ddot": 0,
        "tle_line1": "1 39110U 93036BTZ 25337.55153999  .00004484  00000+0  66560-3 0  9996",
        "tle_line2": "2 39110  73.9598  79.4668 0096460 313.6965  59.6182 14.72215365623496"
      },
      "geometry": {
        "type": "Point",
        "coordinates": [
          61.376834628227904,
          -10.176795121529379
        ]
      }
    }
  ]
}